#dP2023  5 16  0  0  0.00000000      96 __u+U ITR00 EXT  IAC
## 2262 172800.00000000   900.00000000 60080 0.0000000000000
+  118   C06C07C08C09C10C11C12C13C14C16C19C20C21C22C23C24C25
+        C26C27C28C29C30C32C33C34C35C36C37C38C39C40C41C42C43
+        C44C45C46E02E04E05E07E08E09E10E11E12E13E14E15E18E19
+        E21E24E25E26E27E30E31E33E34E36G01G02G03G04G05G06G07
+        G08G09G10G11G12G13G14G15G16G17G18G19G20G21G22G23G24
+        G25G26G27G28G29G30G31G32J02J03J04R01R02R03R04R05R07
+        R08R09R11R12R13R14R15R16R17R18R19R20R21R22R24R25  0
++        11 10 11 11 10  9  8  9  9 11  8  7  9  8  9  8  8
++         9 10  8  8  9  8  8  8  9  9  8  9 12 10  8  9  9
++         8  8  9  7  7  7  8  8  7  8  8  8  8  7  8  8  8
++         6  8  7  8  7  8  7  8  8  8  7  7  7  8  7  7  8
++         7  8  7  9  8  7  8  7  7  8  7  7  8  7  7  7  7
++         7  7  7  7  7  7  7  7  9  8  9  9  7  8  7  8  7
++         8  8  8  8  8  8  9  9  9  9  7  9  8  8  9  8  0
%c M  cc GPS ccc cccc cccc cccc cccc ccccc ccccc ccccc ccccc
%c cc cc ccc ccc cccc cccc cccc cccc ccccc ccccc ccccc ccccc
%f  0.0000000  0.000000000  0.00000000000  0.000000000000000
%f  0.0000000  0.000000000  0.00000000000  0.000000000000000
%i    0    0    0    0      0      0      0      0         0
%i    0    0    0    0      0      0      0      0         0
/* IAC                                ULTRA-RAPID PREDICTION
/* S/V CLOCKS ARE ALIGNED TO GNSS TIME                      
/* G:C1WC2W R:C1PC2P E:C1XC5X C:C2IC6I J:C1CC2S             
/* PCV:IGS20_2247 OL/AL:FES2004  NONE     YN ORB:CoN CLK:CoN
*  2023 05 16 13  0  0.00000000
PC06 -11271.973079  40770.309297   1190.539435   -190.678545
PC07  -4720.060032  28740.736024 -30403.766207    -27.318139
PC08 -17511.525179  23442.024073  30281.361712    484.111247
PC09  -6408.997028  41107.164259  -8061.114034    647.297138
PC10   4156.833795  31574.185060 -27113.173483    -59.861146
PC11  -6004.778803 -24713.409052 -11448.437759    622.328132
PC12   5580.092815 -26606.119081   6346.630459    643.183263
PC13  -8963.938180  24606.392076  33131.105677    275.840927
PC14 -16366.131410 -19404.229225 -11644.370927    267.810219
PC16 -13576.437434  39784.151144   5183.599791     76.523345
PC19  22556.334696  16158.004538   2857.661411   -910.819563
PC20   9064.394624  19659.261090  17604.827324    564.474568
PC21  10992.717052 -11547.077381 -22880.938406   -915.142618
PC22  23707.534586   3141.140554 -14350.360206   -485.732959
PC23 -25499.836703   5631.253904   9846.400171   -930.097158
PC24   4143.691862 -18770.611706  20227.488063    -48.030723
PC25 -16242.947369  -8232.145059  21133.443701    127.692879
PC26  19679.040529 -17998.061828   8262.094099   -121.085273
PC27 -10386.830850  22067.333109 -13596.589433    141.029971
PC28 -15835.874088   4974.320392 -22433.136959    104.355998
PC29  12716.223195  16841.047317  18251.099504    121.146496
PC30   1633.846910  27762.477765   2440.284421     -0.279455
PC32 -11030.062809  11582.536873  22888.336063   -561.591657
PC33 -22658.884374 -16051.269142  -2894.084502   -882.328799
PC34  -2507.568119 -27529.256072  -3748.800156    171.948565
PC35  15803.660757  -4654.737840  22504.350241    626.466769
PC36  15428.748034   9124.732566 -21364.744979   -438.467213
PC37 -20826.616452  17099.988195  -7200.441639   -784.238957
PC38 -24335.762294  24900.750988  23722.240224     78.743874
PC39 -14172.252738  38420.874525  10584.416098     -2.941563
PC40  -7526.472803  23755.412538 -33987.207484    -23.350491
PC41 -23996.817889  -3548.152469  13864.671184   -943.419863
PC42  -7820.347923 -19496.969150 -18337.986802   -689.612555
PC43 -12440.558788 -17612.854900 -17715.206433     21.685366
PC44   9719.135170 -22284.690030  13653.193386    108.374720
PC45  25564.449417  -6032.995118  -9451.277407    -98.271918
PC46  -2494.462915  18254.107712 -20949.841523    -54.440074
PE02   5899.317074 -16147.038030  24092.862715     38.462444
PE04  15035.930527  25314.387360  -3015.808103   -123.545749
PE05  13359.985551 -11008.921735 -24000.305978    -66.941665
PE07 -20156.455458 -10219.828220  19134.924000    -45.479224
PE08 -14927.842368 -25419.481529   2770.092167    -83.912588
PE09  20065.364945  10403.198911 -19095.630646    -16.659806
PE10  12969.877112   9391.586643  24882.603058   -534.133559
PE11  18716.037436  -1511.324090  22861.327093   1941.035399
PE12   5797.056558  17984.919724  22781.876342   -540.962117
PE13 -18357.568839    777.876549 -23212.709956    -19.179639
PE14 -15800.056857 -26823.900610  -6224.783500    226.754751
PE15  -5515.761768 -18177.586339 -22698.361916    -22.201638
PE18   8162.567505  23044.480586   -212.786011     70.509136
PE19   -721.534208  24502.205232  16605.373300  -2521.070504
PE21 -23920.985109   8820.303877 -15042.142282   -529.425780
PE24  28981.972175   4644.527786  -3921.746616   -101.885469
PE25  24154.900783  -8625.321107  14779.893390   -605.149616
PE26 -20189.566300  19510.728503  -9383.417446    105.871757
PE27 -29144.081554  -4043.447885   3205.151416    -50.860521
PE30 -16557.769464 -14669.934038  19651.748044   -177.489917
PE31  17154.377552  14383.084796 -19361.348281   -523.864924
PE33 -10490.499118  26256.101112   8781.513089   -444.387810
PE34  10316.147263 -26269.316080  -8941.044646    -45.712587
PE36  20280.282008 -19020.996223  10130.473855    -56.940582
PG01  13892.242754 -22203.527837  -3361.363701    184.938073
PG02  17380.956402  -1302.001846  20593.666823   -595.637774
PG03  10228.400058 -13039.536029 -20857.532746   -301.617069
PG04   3023.024925 -21262.728598 -15539.667276     42.919967
PG05 -23996.684016   5524.412335   9933.349530   -127.406315
PG06 -13097.454712  -6677.076274 -22066.265594    587.998238
PG07   1665.949869 -21424.512616  15742.470817    176.851451
PG08  11301.404530 -10958.962908  21267.588262   -122.689994
PG09  -6190.501390 -24812.047369  -7161.906579   -157.605873
PG10  20065.319052  11274.659486  13701.579017    -37.150406
PG11 -19981.837597   7384.535262 -15833.216644   -198.932234
PG12 -13805.481331  11505.925626 -19807.904347   -376.713511
PG13 -14792.538381   2571.442390  21740.916932    520.736326
PG14 -17221.876021 -13359.989278  15291.341874     58.787740
PG15  -9833.172949  12959.981975  20499.323752     40.056326
PG16  25749.221440    -51.474771   7101.618305   -500.516359
PG17 -13316.032098 -21631.928151  -7143.794262    715.002124
PG18    266.422424  19702.118751  17734.466360   -268.598139
PG19 -15887.345406 -15317.823747 -15219.807320    317.652932
PG20 -26344.158380   2299.465373    779.938999    433.282626
PG21  17033.108500 -18628.114404   7212.643936    153.793372
PG22  16492.416845  12192.268532 -16511.445829    482.256836
PG23   8406.102346  14623.170740  20559.493401     24.675765
PG24 -14530.230242  21858.155225   1732.005747   -190.740870
PG25   -706.723496  15516.473391 -21864.003645    443.215502
PG26  25738.796966   4913.168679  -5456.535068    240.725671
PG27  16353.469742   1519.959821  20708.455096     36.325813
PG28  12536.133574   8611.045617 -21798.245583     78.024739
PG29   1829.262782  24602.848423  -9779.319328   -599.615692
PG30  -8056.686690 -14722.495718  20645.730619   -516.862695
PG31  18573.847258  -1971.687123 -19226.730475   -216.220156
PG32  15966.490662  19125.850630  -9304.760485   -477.846685
PJ02 -31223.598272  15985.104196 -18771.541119      0.008300
PJ03 -23243.716895  32060.120812  -9935.198410      4.268087
PJ04 -27587.621455  25666.028428  24986.679960     94.581518
PR01  -1137.728663 -14287.069923 -21098.445881     57.605307
PR02 -15285.865561 -18910.114456  -7557.192901    -22.830331
PR03 -20212.194240 -12022.121935   9863.783837     77.931683
PR04 -13705.094419   1018.192241  21521.382802    187.399396
PR05     80.537893  13717.243196  21526.984681    112.654798
PR07  20154.889111  11633.322980 -10453.378714     56.016950
PR08  13659.207769  -1269.141388 -21447.249688    -70.807827
PR09   7448.958337   9214.381950 -22563.071121    120.473383
PR11  23767.203105  -9026.120794   1972.999036    -57.164377
PR12  11580.144032 -13162.598322  18559.531779     27.320324
PR13  -5369.271044  -9788.291406  22921.547590    -35.100975
PR14 -21550.979011    232.124955  13673.422615     24.677547
PR15 -23540.626832   9304.615057  -3162.124545     89.339547
PR16 -11870.493929  13135.938651 -18369.060092     14.619288
PR17  -9714.358000  -4765.887242 -23099.606814    630.467856
PR18 -11628.353644  12930.656263 -18676.312970     81.802325
PR19  -8841.397227  23164.220191  -6001.246967   -232.820508
PR20    949.254110  21158.120059  14251.910969    -92.945815
PR21  10041.756854   3097.162759  23235.792807     -7.890005
PR22  12333.618910 -13237.012869  17995.406132     81.609863
PR24  -2284.960092 -20784.581662 -14608.035266    170.831656
PR25   9748.387738   5404.179623  22943.614593     61.288421
EOF
